{"type": "FeatureCollection", "features": [{"type": "Feature", "properties": {"norad_id": 26766, "name": "INTELSAT 10 (IS-10)", "group": "intelsat", "lat": -4.684962518150686, "lon": 28.411868970903534, "alt_km": 36132.265310970084, "timestamp": "2025-12-11T10:53:15.552896+00:00", "meta": {"OBJECT_NAME": "INTELSAT 10 (IS-10)", "OBJECT_ID": "2001-019A", "EPOCH": "2025-12-10T14:14:44.567232", "MEAN_MOTION": 0.99078928, "ECCENTRICITY": 0.00078121, "INCLINATION": 8.625, "RA_OF_ASC_NODE": 61.1789, "ARG_OF_PERICENTER": 223.6466, "MEAN_ANOMALY": 156.4185, "EPHEMERIS_TYPE": 0, "CLASSIFICATION_TYPE": "U", "NORAD_CAT_ID": 26766, "ELEMENT_SET_NO": 999, "REV_AT_EPOCH": 4371, "BSTAR": 0, "MEAN_MOTION_DOT": -2.88e-06, "MEAN_MOTION_DDOT": 0}, "tle": {"line1": "1 26766U 01019A   25344.59357138 -.00000288  00000+0  00000+0 0  9994", "line2": "2 26766   8.6250  61.1789 0007812 223.6466 156.4185  0.99078928 43716"}}, "geometry": {"type": "Point", "coordinates": [28.411868970903534, -4.684962518150686]}}, {"type": "Feature", "properties": {"norad_id": 26900, "name": "INTELSAT 902 (IS-902)", "group": "intelsat", "lat": 4.908041642154862, "lon": -166.41148309052852, "alt_km": 35776.72138588647, "timestamp": "2025-12-11T10:53:15.552923+00:00", "meta": {"OBJECT_NAME": "INTELSAT 902 (IS-902)", "OBJECT_ID": "2001-039A", "EPOCH": "2025-12-01T16:59:59.311968", "MEAN_MOTION": 1.00270327, "ECCENTRICITY": 0.00043097, "INCLINATION": 5.6187, "RA_OF_ASC_NODE": 74.2002, "ARG_OF_PERICENTER": 175.119, "MEAN_ANOMALY": 26.3816, "EPHEMERIS_TYPE": 0, "CLASSIFICATION_TYPE": "U", "NORAD_CAT_ID": 26900, "ELEMENT_SET_NO": 999, "REV_AT_EPOCH": 8871, "BSTAR": 0, "MEAN_MOTION_DOT": -2.63e-06, "MEAN_MOTION_DDOT": 0}, "tle": {"line1": "1 26900U 01039A   25335.70832537 -.00000263  00000+0  00000+0 0  9993", "line2": "2 26900   5.6187  74.2002 0004309 175.1190  26.3816  1.00270327 88713"}}, "geometry": {"type": "Point", "coordinates": [-166.41148309052852, 4.908041642154862]}}, {"type": "Feature", "properties": {"norad_id": 27380, "name": "INTELSAT 904 (IS-904)", "group": "intelsat", "lat": 4.064943358463059, "lon": -147.61569311973636, "alt_km": 35784.307404688225, "timestamp": "2025-12-11T10:53:15.552941+00:00", "meta": {"OBJECT_NAME": "INTELSAT 904 (IS-904)", "OBJECT_ID": "2002-007A", "EPOCH": "2025-12-11T02:13:33.121344", "MEAN_MOTION": 1.00272878, "ECCENTRICITY": 0.0001533, "INCLINATION": 6.451, "RA_OF_ASC_NODE": 71.4509, "ARG_OF_PERICENTER": 222.2761, "MEAN_ANOMALY": 148.2084, "EPHEMERIS_TYPE": 0, "CLASSIFICATION_TYPE": "U", "NORAD_CAT_ID": 27380, "ELEMENT_SET_NO": 999, "REV_AT_EPOCH": 4988, "BSTAR": 0, "MEAN_MOTION_DOT": -2.21e-06, "MEAN_MOTION_DDOT": 0}, "tle": {"line1": "1 27380U 02007A   25345.09274446 -.00000221  00000+0  00000+0 0  9998", "line2": "2 27380   6.4510  71.4509 0001533 222.2761 148.2084  1.00272878 49889"}}, "geometry": {"type": "Point", "coordinates": [-147.61569311973636, 4.064943358463059]}}, {"type": "Feature", "properties": {"norad_id": 27426, "name": "DIRECTV 5 (TEMPO 1)", "group": "intelsat", "lat": 3.6526367915762, "lon": 133.49749976069745, "alt_km": 35796.66696737201, "timestamp": "2025-12-11T10:53:15.552955+00:00", "meta": {"OBJECT_NAME": "DIRECTV 5 (TEMPO 1)", "OBJECT_ID": "2002-023A", "EPOCH": "2025-12-11T05:08:38.770368", "MEAN_MOTION": 1.0027173, "ECCENTRICITY": 0.0003525, "INCLINATION": 4.3986, "RA_OF_ASC_NODE": 77.6693, "ARG_OF_PERICENTER": 193.7723, "MEAN_ANOMALY": 135.7724, "EPHEMERIS_TYPE": 0, "CLASSIFICATION_TYPE": "U", "NORAD_CAT_ID": 27426, "ELEMENT_SET_NO": 999, "REV_AT_EPOCH": 8623, "BSTAR": 0, "MEAN_MOTION_DOT": -5.1e-07, "MEAN_MOTION_DDOT": 0}, "tle": {"line1": "1 27426U 02023A   25345.21433762 -.00000051  00000+0  00000+0 0  9990", "line2": "2 27426   4.3986  77.6693 0003525 193.7723 135.7724  1.00271730 86237"}}, "geometry": {"type": "Point", "coordinates": [133.49749976069745, 3.6526367915762]}}, {"type": "Feature", "properties": {"norad_id": 27438, "name": "INTELSAT 905 (IS-905)", "group": "intelsat", "lat": 3.5653069059824287, "lon": 106.35453711451564, "alt_km": 35796.43905948668, "timestamp": "2025-12-11T10:53:15.552968+00:00", "meta": {"OBJECT_NAME": "INTELSAT 905 (IS-905)", "OBJECT_ID": "2002-027A", "EPOCH": "2025-12-10T10:38:24.492192", "MEAN_MOTION": 1.00272307, "ECCENTRICITY": 0.00027995, "INCLINATION": 6.2803, "RA_OF_ASC_NODE": 72.0822, "ARG_OF_PERICENTER": 193.4676, "MEAN_ANOMALY": 196.2661, "EPHEMERIS_TYPE": 0, "CLASSIFICATION_TYPE": "U", "NORAD_CAT_ID": 27438, "ELEMENT_SET_NO": 999, "REV_AT_EPOCH": 4947, "BSTAR": 0, "MEAN_MOTION_DOT": 9.7e-07, "MEAN_MOTION_DDOT": 0}, "tle": {"line1": "1 27438U 02027A   25344.44333903  .00000097  00000+0  00000+0 0  9996", "line2": "2 27438   6.2803  72.0822 0002799 193.4676 196.2661  1.00272307 49476"}}, "geometry": {"type": "Point", "coordinates": [106.35453711451564, 3.5653069059824287]}}, {"type": "Feature", "properties": {"norad_id": 27445, "name": "GALAXY 3C (G-3C)", "group": "intelsat", "lat": 3.0361116979973217, "lon": 148.82875650717386, "alt_km": 35781.44558226207, "timestamp": "2025-12-11T10:53:15.552981+00:00", "meta": {"OBJECT_NAME": "GALAXY 3C (G-3C)", "OBJECT_ID": "2002-030A", "EPOCH": "2025-12-11T05:00:38.584224", "MEAN_MOTION": 1.0027162, "ECCENTRICITY": 0.0001123, "INCLINATION": 3.2606, "RA_OF_ASC_NODE": 80.5234, "ARG_OF_PERICENTER": 92.5456, "MEAN_ANOMALY": 247.402, "EPHEMERIS_TYPE": 0, "CLASSIFICATION_TYPE": "U", "NORAD_CAT_ID": 27445, "ELEMENT_SET_NO": 999, "REV_AT_EPOCH": 4460, "BSTAR": 0, "MEAN_MOTION_DOT": -1.47e-06, "MEAN_MOTION_DDOT": 0}, "tle": {"line1": "1 27445U 02030A   25345.20877991 -.00000147  00000+0  00000+0 0  9990", "line2": "2 27445   3.2606  80.5234 0001123  92.5456 247.4020  1.00271620 44603"}}, "geometry": {"type": "Point", "coordinates": [148.82875650717386, 3.0361116979973217]}}, {"type": "Feature", "properties": {"norad_id": 27513, "name": "INTELSAT 906 (IS-906)", "group": "intelsat", "lat": -4.244365537126476, "lon": -52.20974662259402, "alt_km": 35767.27894035486, "timestamp": "2025-12-11T10:53:15.552994+00:00", "meta": {"OBJECT_NAME": "INTELSAT 906 (IS-906)", "OBJECT_ID": "2002-041A", "EPOCH": "2025-12-10T20:41:42.470304", "MEAN_MOTION": 1.00271229, "ECCENTRICITY": 0.0006143, "INCLINATION": 5.324, "RA_OF_ASC_NODE": 75.2537, "ARG_OF_PERICENTER": 191.2256, "MEAN_ANOMALY": 187.9112, "EPHEMERIS_TYPE": 0, "CLASSIFICATION_TYPE": "U", "NORAD_CAT_ID": 27513, "ELEMENT_SET_NO": 999, "REV_AT_EPOCH": 8514, "BSTAR": 0, "MEAN_MOTION_DOT": 1.7e-07, "MEAN_MOTION_DDOT": 0}, "tle": {"line1": "1 27513U 02041A   25344.86229711  .00000017  00000+0  00000+0 0  9995", "line2": "2 27513   5.3240  75.2537 0006143 191.2256 187.9112  1.00271229 85144"}}, "geometry": {"type": "Point", "coordinates": [-52.20974662259402, -4.244365537126476]}}, {"type": "Feature", "properties": {"norad_id": 27954, "name": "GALAXY 13 (HORIZONS-1)", "group": "intelsat", "lat": 0.13451426351099108, "lon": 93.71312776509862, "alt_km": 35794.29319825746, "timestamp": "2025-12-11T10:53:15.553006+00:00", "meta": {"OBJECT_NAME": "GALAXY 13 (HORIZONS-1)", "OBJECT_ID": "2003-044A", "EPOCH": "2025-12-11T04:14:15.566784", "MEAN_MOTION": 1.00270843, "ECCENTRICITY": 0.0002035, "INCLINATION": 0.9315, "RA_OF_ASC_NODE": 86.49, "ARG_OF_PERICENTER": 165.3304, "MEAN_ANOMALY": 101.8836, "EPHEMERIS_TYPE": 0, "CLASSIFICATION_TYPE": "U", "NORAD_CAT_ID": 27954, "ELEMENT_SET_NO": 999, "REV_AT_EPOCH": 4468, "BSTAR": 0, "MEAN_MOTION_DOT": 1.39e-06, "MEAN_MOTION_DDOT": 0}, "tle": {"line1": "1 27954U 03044A   25345.17656906  .00000139  00000+0  00000+0 0  9998", "line2": "2 27954   0.9315  86.4900 0002035 165.3304 101.8836  1.00270843 44680"}}, "geometry": {"type": "Point", "coordinates": [93.71312776509862, 0.13451426351099108]}}, {"type": "Feature", "properties": {"norad_id": 28358, "name": "INTELSAT 10-02", "group": "intelsat", "lat": -0.013858213817185449, "lon": -117.27002917067881, "alt_km": 35783.94958869213, "timestamp": "2025-12-11T10:53:15.553019+00:00", "meta": {"OBJECT_NAME": "INTELSAT 10-02", "OBJECT_ID": "2004-022A", "EPOCH": "2025-12-11T03:14:06.327744", "MEAN_MOTION": 1.00278861, "ECCENTRICITY": 0.0002196, "INCLINATION": 0.0236, "RA_OF_ASC_NODE": 64.8116, "ARG_OF_PERICENTER": 267.1758, "MEAN_ANOMALY": 155.6608, "EPHEMERIS_TYPE": 0, "CLASSIFICATION_TYPE": "U", "NORAD_CAT_ID": 28358, "ELEMENT_SET_NO": 999, "REV_AT_EPOCH": 7867, "BSTAR": 0, "MEAN_MOTION_DOT": -4e-08, "MEAN_MOTION_DDOT": 0}, "tle": {"line1": "1 28358U 04022A   25345.13479546 -.00000004  00000+0  00000+0 0  9995", "line2": "2 28358   0.0236  64.8116 0002196 267.1758 155.6608  1.00278861 78671"}}, "geometry": {"type": "Point", "coordinates": [-117.27002917067881, -0.013858213817185449]}}, {"type": "Feature", "properties": {"norad_id": 28626, "name": "XM-3 (RHYTHM)", "group": "intelsat", "lat": -0.15788840936978324, "lon": 4.161418093285018, "alt_km": 36153.98841152521, "timestamp": "2025-12-11T10:53:15.553031+00:00", "meta": {"OBJECT_NAME": "XM-3 (RHYTHM)", "OBJECT_ID": "2005-008A", "EPOCH": "2025-12-10T23:37:38.582976", "MEAN_MOTION": 0.98953167, "ECCENTRICITY": 0.0001457, "INCLINATION": 0.1703, "RA_OF_ASC_NODE": 81.3447, "ARG_OF_PERICENTER": 267.2649, "MEAN_ANOMALY": 208.4123, "EPHEMERIS_TYPE": 0, "CLASSIFICATION_TYPE": "U", "NORAD_CAT_ID": 28626, "ELEMENT_SET_NO": 999, "REV_AT_EPOCH": 4073, "BSTAR": 0, "MEAN_MOTION_DOT": -2.03e-06, "MEAN_MOTION_DDOT": 0}, "tle": {"line1": "1 28626U 05008A   25344.98447434 -.00000203  00000+0  00000+0 0  9992", "line2": "2 28626   0.1703  81.3447 0001457 267.2649 208.4123  0.98953167 40739"}}, "geometry": {"type": "Point", "coordinates": [4.161418093285018, -0.15788840936978324]}}]}